H1 CPF  2  SGF 2024 11 21  2  326 01 westpac   
H2  9804305 8801    25398 2024 11 20  0  0  0 2024 11 25 23 57  0   180 1 1  0 0 0 1
H9
10 0 60639   2520.00000  0  -4430311.284  -2552376.944   5051968.072
10 0 60639   2700.00000  0  -3729183.606  -1750132.980   5888451.053
10 0 60639   2880.00000  0  -2878094.079   -908013.645   6520714.576
10 0 60639   3060.00000  0  -1905771.685    -58584.958   6926941.692
10 0 60639   3240.00000  0   -845924.889    766184.889   7093143.672
10 0 60639   3420.00000  0    263944.600   1536126.983   7013612.649
10 0 60639   3600.00000  0   1383874.466   2223975.096   6691105.044
10 0 60639   3780.00000  0   2472882.522   2806334.673   6136749.016
10 0 60639   3960.00000  0   3490469.755   3264486.410   5369680.895
10 0 60639   4140.00000  0   4398140.670   3585002.285   4416413.471
10 0 60639   4320.00000  0   5160882.654   3760150.256   3309945.973
10 0 60639   4500.00000  0   5748553.684   3788072.697   2088635.763
10 0 60639   4680.00000  0   6137106.825   3672723.359    794858.536
10 0 60639   4860.00000  0   6309594.088   3423566.550   -526490.550
10 0 60639   5040.00000  0   6256896.719   3055049.017  -1829597.324
10 0 60639   5220.00000  0   5978145.201   2585872.152  -3069357.912
10 0 60639   5400.00000  0   5480813.029   2038105.584  -4202969.390
10 0 60639   5580.00000  0   4780484.245   1436183.388  -5191418.508
10 0 60639   5760.00000  0   3900308.086    805834.925  -6000807.065
10 0 60639   5940.00000  0   2870179.826    173005.188  -6603471.071
10 0 60639   6120.00000  0   1725686.702   -437190.636  -6978870.532
10 0 60639   6300.00000  0    506864.839  -1001439.770  -7114233.645
10 0 60639   6480.00000  0   -743193.060  -1499100.306  -7004951.213
10 0 60639   6660.00000  0  -1979836.507  -1912938.345  -6654717.289
10 0 60639   6840.00000  0  -3158422.381  -2229716.845  -6075418.226
10 0 60639   7020.00000  0  -4235902.922  -2440618.950  -5286769.992
10 0 60639   7200.00000  0  -5172397.318  -2541496.143  -4315707.114
10 0 60639   7380.00000  0  -5932692.848  -2532929.109  -3195520.792
10 0 60639   7560.00000  0  -6487615.176  -2420095.090  -1964761.653
10 0 60639   7740.00000  0  -6815204.996  -2212442.982   -665932.423
10 0 60639   7920.00000  0  -6901640.703  -1923186.667    655988.064
10 0 60639   8100.00000  0  -6741855.035  -1568636.777   1955135.169
10 0 60639   8280.00000  0  -6339806.575  -1167402.038   3186396.810
10 0 60639   8460.00000  0  -5708389.740   -739501.027   4307026.017
10 0 60639   8640.00000  0  -4868987.432   -305427.853   5278158.811
10 0 60639   8820.00000  0  -3850694.022    114779.548   6066170.219
10 0 60639   9000.00000  0  -2689254.567    502425.355   6643828.091
10 0 60639   9180.00000  0  -1425762.534    840956.445   6991210.008
10 0 60639   9360.00000  0   -105173.013   1116646.113   7096360.004
10 0 60639   9540.00000  0   1225311.374   1319138.237   6955673.764
10 0 60639   9720.00000  0   2517930.323   1441833.713   6574012.438
10 0 60639   9900.00000  0   3726082.862   1482107.126   5964543.856
10 0 60639  10080.00000  0   4806020.301   1441346.619   5148311.452
10 0 60639  10260.00000  0   5718456.304   1324816.443   4153537.370
10 0 60639  10440.00000  0   6430042.070   1141347.846   3014672.110
10 0 60639  10620.00000  0   6914637.364    902868.100   1771206.092
10 0 60639  10800.00000  0   7154319.421    623787.497    466287.930
10 0 60639  10980.00000  0   7140080.201    320273.130   -854804.877
10 0 60639  11160.00000  0   6872173.089      9444.014  -2146280.738
10 0 60639  11340.00000  0   6360089.874   -291472.066  -3363462.204
10 0 60639  11520.00000  0   5622176.257   -565977.707  -4464357.393
10 0 60639  11700.00000  0   4684909.111   -799097.698  -5411111.459
10 0 60639  11880.00000  0   3581880.177   -978086.325  -6171282.611
10 0 60639  12060.00000  0   2352540.371  -1093023.285  -6718908.173
10 0 60639  12240.00000  0   1040759.079  -1137273.205  -7035334.054
10 0 60639  12420.00000  0   -306742.997  -1107794.210  -7109796.935
10 0 60639  12600.00000  0  -1642038.312  -1005287.451  -6939755.458
10 0 60639  12780.00000  0  -2917666.928   -834183.079  -6530968.519
10 0 60639  12960.00000  0  -4088294.275   -602462.545  -5897319.182
10 0 60639  13140.00000  0  -5112309.313   -321323.376  -5060391.160
10 0 60639  13320.00000  0  -5953319.696     -4694.992  -4048793.386
10 0 60639  13500.00000  0  -6581489.431    331379.247  -2897240.011
10 0 60639  13680.00000  0  -6974663.540    669473.734  -1645398.746
10 0 60639  13860.00000  0  -7119222.942    991595.763   -336537.159
10 0 60639  14040.00000  0  -7010618.786   1280045.672    983991.839
10 0 60639  14220.00000  0  -6653549.206   1518280.302   2270358.510
10 0 60639  14400.00000  0  -6061772.289   1691736.778   3477893.091
10 0 60639  14580.00000  0  -5257556.063   1788573.071   4564681.884
10 0 60639  14760.00000  0  -4270795.242   1800287.571   5493048.349
10 0 60639  14940.00000  0  -3137847.704   1722190.182   6230862.383
10 0 60639  15120.00000  0  -1900146.441   1553705.497   6752639.830
10 0 60639  15300.00000  0   -602642.232   1298495.280   7040396.465
10 0 60639  15480.00000  0    707852.261    964395.821   7084233.833
10 0 60639  15660.00000  0   1984356.888    563174.713   6882657.130
10 0 60639  15840.00000  0   3181408.523    110114.937   6442622.440
10 0 60639  16020.00000  0   4256686.942   -376562.189   5779311.895
10 0 60639  16200.00000  0   5172531.021   -876417.981   4915635.515
10 0 60639  16380.00000  0   5897292.278  -1367636.861   3881468.428
10 0 60639  16560.00000  0   6406476.149  -1827954.617   2712637.708
10 0 60639  16740.00000  0   6683619.880  -2235636.119   1449683.044
10 0 60639  16920.00000  0   6720863.191  -2570457.812    136433.001
10 0 60639  17100.00000  0   6519181.986  -2814647.876  -1181551.852
10 0 60639  17280.00000  0   6088269.228  -2953735.389  -2458604.750
10 0 60639  17460.00000  0   5446068.669  -2977265.788  -3650573.893
10 0 60639  17640.00000  0   4617993.029  -2879348.748  -4716368.529
10 0 60639  17820.00000  0   3635870.740  -2659016.879  -5619371.704
10 0 60639  18000.00000  0   2536674.220  -2320380.401  -6328667.024
10 0 60639  18180.00000  0   1361099.081  -1872577.513  -6820045.414
10 0 60639  18360.00000  0    152048.443  -1329525.243  -7076777.609
10 0 60639  18540.00000  0  -1046923.204   -709481.562  -7090133.148
10 0 60639  18720.00000  0  -2193153.525    -34436.467  -6859646.766
10 0 60639  18900.00000  0  -3246362.453    670653.465  -6393132.097
10 0 60639  19080.00000  0  -4170047.003   1378765.485  -5706444.344
10 0 60639  19260.00000  0  -4932748.353   2061822.175  -4822994.685
10 0 60639  19440.00000  0  -5509151.620   2691787.018  -3773012.869
10 0 60639  19620.00000  0  -5880972.099   3241803.465  -2592564.489
10 0 60639  19800.00000  0  -6037590.662   3687330.206  -1322346.772
10 0 60639  19980.00000  0  -5976403.123   4007223.909     -6291.833
10 0 60639  20160.00000  0  -5702857.367   4184713.461   1309975.083
10 0 60639  20340.00000  0  -5230166.764   4208213.071   2580761.223
10 0 60639  20520.00000  0  -4578709.962   4071929.966   3761939.644
10 0 60639  20700.00000  0  -3775151.223   3776238.184   4812520.889
10 0 60639  20880.00000  0  -2851325.777   3327798.889   5696097.270
10 0 60639  21060.00000  0  -1842946.230   2739426.156   6382105.465
10 0 60639  21240.00000  0   -788190.485   2029705.301   6846864.857
10 0 60639  21420.00000  0    273763.580   1222383.282   7074361.719
10 0 60639  21600.00000  0   1304198.913    345558.135   7056771.398
10 0 60639  21780.00000  0   2266271.413   -569305.860   6794710.548
10 0 60639  21960.00000  0   3126328.512  -1488508.170   6297217.669
10 0 60639  22140.00000  0   3855096.272  -2377354.095   5581460.114
10 0 60639  22320.00000  0   4428696.403  -3201469.013   4672168.506
10 0 60639  22500.00000  0   4829456.367  -3928139.133   3600809.830
10 0 60639  22680.00000  0   5046482.336  -4527628.391   2404514.578
10 0 60639  22860.00000  0   5075966.585  -4974411.096   1124785.309
10 0 60639  23040.00000  0   4921210.238  -5248262.271   -193966.875
10 0 60639  23220.00000  0   4592360.367  -5335152.288  -1506000.731
10 0 60639  23400.00000  0   4105874.296  -5227899.702  -2765874.909
10 0 60639  23580.00000  0   3483736.474  -4926549.555  -3930057.668
10 0 60639  23760.00000  0   2752471.093  -4438462.728  -4958447.398
10 0 60639  23940.00000  0   1942002.378  -3778117.194  -5815744.307
10 0 60639  24120.00000  0   1084421.730  -2966638.334  -6472623.248
10 0 60639  24300.00000  0    212718.506  -2031089.690  -6906683.531
10 0 60639  24480.00000  0   -640478.544  -1003549.237  -7103157.316
10 0 60639  24660.00000  0  -1444101.059     79992.618  -7055364.702
10 0 60639  24840.00000  0  -2169749.143   1180876.153  -6764916.742
10 0 60639  25020.00000  0  -2792677.405   2259123.591  -6241666.505
10 0 60639  25200.00000  0  -3292632.434   3274864.565  -5503411.288
10 0 60639  25380.00000  0  -3654521.594   4189799.472  -4575344.232
10 0 60639  25560.00000  0  -3868889.031   4968652.854  -3489252.367
10 0 60639  25740.00000  0  -3932173.044   5580558.010  -2282473.940
10 0 60639  25920.00000  0  -3846734.964   6000315.654   -996644.471
10 0 60639  26100.00000  0  -3620652.881   6209470.046    323738.789
10 0 60639  26280.00000  0  -3267282.529   6197139.291   1632883.243
10 0 60639  26460.00000  0  -2804600.982   5960554.829   2885336.810
10 0 60639  26640.00000  0  -2254359.306   5505271.215   4037616.178
10 0 60639  26820.00000  0  -1641095.675   4845041.293   5049749.788
10 0 60639  27000.00000  0   -991058.854   4001369.706   5886679.793
10 0 60639  27180.00000  0   -331091.772   3002766.625   6519470.829
10 0 60639  27360.00000  0    312470.569   1883739.300   6926286.544
10 0 60639  27540.00000  0    914845.498    683567.497   7093112.588
10 0 60639  27720.00000  0   1453752.026   -555093.029   7014212.616
10 0 60639  27900.00000  0   1910232.526  -1787731.297   6692313.824
99